KUZGTU 1 (RS47S)        
1 57217U 23091AV  26165.15612465  .00012241  00000+0  42562-3 0  9998
2 57217  97.5071 229.6050 0012375 107.3147 252.9448 15.29801203163913
SONATE-2                
1 59112U 24043Q   26164.99241653  .00038437  00000+0  50299-3 0  9991
2 59112  97.5521 315.1932 0006915 205.9654 154.1256 15.58498683127398
MESAT1                  
1 60209U 24125G   26165.16134300  .00055738  00000+0  61397-3 0  9995
2 60209  97.2291  22.5760 0009221 215.2038 144.8612 15.62910376109091
OOV-CUBE (TUBSAT-30)    
1 60240U 24128F   26164.92812934  .00002141  00000+0  17165-3 0  9996
2 60240  61.9948 236.9373 0045036 132.9755 227.5126 15.02762484105622
COLIBRI-S (RS67S)       
1 61746U 24199M   26165.15231294  .00021324  00000+0  41447-3 0  9990
2 61746  97.3001  38.9796 0006250 293.3417  66.7176 15.47613882136941
HORS 3 (RS81S)          
1 61753U 24199U   26165.19346597  .00037909  00000+0  56939-3 0  9993
2 61753  97.2986  40.9756 0003734 296.8606  63.2266 15.54787154137092
HORS 4 (RS82S)          
1 61754U 24199V   26165.16302312  .00049418  00000+0  62363-3 0  9994
2 61754  97.2932  42.1268 0002997 278.4397  81.6520 15.59432997137172
ARCTICSAT 1 (RS74S)     
1 61762U 24199AD  26165.09943773  .09062228  24925-5  82634-3 0  9991
2 61762  97.2739  49.3340 0010761 237.4855 122.5405 16.38817654137631
SIT-2086                
1 61764U 24199AF  26165.16807166  .00035022  00000+0  56344-3 0  9990
2 61764  97.2943  41.4369 0004352 266.9874  93.0881 15.52899780133968
HYPERVIEW 1G (RS66S)    
1 61772U 24199AP  26165.20441545  .00141737  00000+0  93795-3 0  9991
2 61772  97.2881  44.7750 0003058 234.4524 125.6456 15.75124762134206
ALTAIR (RS65S)          
1 61779U 24199AW  26165.18232209  .00010311  00000+0  28666-3 0  9998
2 61779  97.3036  34.5537 0011376 323.3572  36.6893 15.36979815136650
ASRTU-1 (AO-123)        
1 61781U 24199AY  26165.16759350  .00007507  00000+0  21845-3 0  9995
2 61781  97.3006  33.8663 0012534 326.0379  34.0061 15.35637284133469
SAMSAT-IONOSPHERE (RS7*)
1 61784U 24199BB  26165.16827162  .00044356  00000+0  60446-3 0  9998
2 61784  97.2954  40.9858 0005869 292.5433  67.5201 15.57389426137095
RTU MIREA 1 (RS51S)     
1 61785U 24199BC  26165.19932705  .00059554  00000+0  71214-3 0  9993
2 61785  97.2942  41.8340 0005458 284.2773  75.7878 15.60797522134001
TEVEL2-4                
1 63213U 25052D   26164.66098886  .00019485  00000+0  58447-3 0  9996
2 63213  97.3918  61.0474 0004795 110.7775 249.3982 15.34498104 69572
TEVEL2-5                
1 63214U 25052E   26165.13761331  .00019767  00000+0  59574-3 0  9997
2 63214  97.3913  61.4736 0004713 110.5987 249.5761 15.34345297 69645
TEVEL2-6                
1 63215U 25052F   26164.95421972  .00018841  00000+0  56882-3 0  9992
2 63215  97.3920  61.2743 0004632 110.9610 249.2129 15.34300916 69618
TEVEL2-1                
1 63217U 25052H   26165.17784814  .00018322  00000+0  56239-3 0  9996
2 63217  97.3889  61.1263 0004625 119.6216 240.5488 15.33780453 69631
TEVEL2-3                
1 63218U 25052J   26164.97688411  .00018698  00000+0  57302-3 0  9998
2 63218  97.3894  60.9467 0004591 119.8547 240.3152 15.33827114 69601
TEVEL2-2                
1 63219U 25052K   26164.65625369  .00018774  00000+0  57640-3 0  9997
2 63219  97.3888  60.6072 0004613 120.9946 239.1750 15.33768522 69556
TEVEL2-9                
1 63237U 25052AD  26164.69444861  .00016401  00000+0  53567-3 0  9996
2 63237  97.3952  60.0277 0007510 140.3804 219.7988 15.31800703 69493
TEVEL2-7                
1 63238U 25052AE  26164.66935050  .00016668  00000+0  54931-3 0  9990
2 63238  97.3956  59.9204 0007556 140.9014 219.2775 15.31507331 69483
TEVEL2-8                
1 63239U 25052AF  26165.20026773  .00015772  00000+0  51998-3 0  9990
2 63239  97.3953  60.4271 0007655 140.3023 219.8780 15.31507212 69565
INNOSAT 16 (RS92S7)     
1 64878U 25155C   26165.18137508  .00005710  00000+0  22851-3 0  9997
2 64878  97.4558 132.3187 0010190 185.8929 174.2190 15.25428325 80213
GEOSCAN 6 (RS92S6)      
1 64879U 25155D   26165.17334412  .00009836  00000+0  33991-3 0  9990
2 64879  97.4550 133.7136 0007966 172.2004 187.9361 15.30101235 80301
GEOSCAN 1 (RS92S1)      
1 64880U 25155E   26165.17696068  .00010712  00000+0  36324-3 0  9998
2 64880  97.4546 133.8624 0007901 171.8301 188.3070 15.30692822 80315
239ALFEROV (RS61S)      
1 64881U 25155F   26165.15088904  .00013952  00000+0  44135-3 0  9999
2 64881  97.4546 134.3876 0007618 168.6790 191.4625 15.32865796 80340
GEOSCAN 2 (RS92S2)      
1 64890U 25155Q   26165.17117791  .00010545  00000+0  35464-3 0  9998
2 64890  97.4545 134.0080 0007744 158.4964 201.6603 15.30963439 80322
GEOSCAN 5 (RS92S5)      
1 64891U 25155R   26165.14054301  .00014817  00000+0  46396-3 0  9995
2 64891  97.4539 134.5135 0006329 172.0855 188.0488 15.33184912 80357
GEOSCAN 4 (RS92S4)      
1 64892U 25155S   26165.19029939  .00014178  00000+0  44198-3 0  9998
2 64892  97.4542 134.6112 0006405 171.8044 188.3303 15.33338068 80363
