OBJECT_NAME,OBJECT_ID,EPOCH,MEAN_MOTION,ECCENTRICITY,INCLINATION,RA_OF_ASC_NODE,ARG_OF_PERICENTER,MEAN_ANOMALY,EPHEMERIS_TYPE,CLASSIFICATION_TYPE,NORAD_CAT_ID,ELEMENT_SET_NO,REV_AT_EPOCH,BSTAR,MEAN_MOTION_DOT,MEAN_MOTION_DDOT
KUZGTU 1 (RS47S),2023-091AV,2026-06-14T03:44:49.169760,15.29801203,.0012375,97.5071,229.6050,107.3147,252.9448,0,U,57217,999,16391,.42562E-3,.12241E-3,0
SONATE-2,2024-043Q,2026-06-13T23:49:04.788192,15.58498683,.0006915,97.5521,315.1932,205.9654,154.1256,0,U,59112,999,12739,.50299E-3,.38437E-3,0
MESAT1,2024-125G,2026-06-14T03:52:20.035200,15.62910376,.0009221,97.2291,22.5760,215.2038,144.8612,0,U,60209,999,10909,.61397E-3,.55738E-3,0
OOV-CUBE (TUBSAT-30),2024-128F,2026-06-13T22:16:30.374976,15.02762484,.0045036,61.9948,236.9373,132.9755,227.5126,0,U,60240,999,10562,.17165E-3,.2141E-4,0
COLIBRI-S (RS67S),2024-199M,2026-06-14T03:39:19.838016,15.47613882,.000625,97.3001,38.9796,293.3417,66.7176,0,U,61746,999,13694,.41447E-3,.21324E-3,0
HORS 3 (RS81S),2024-199U,2026-06-14T04:38:35.459808,15.54787154,.0003734,97.2986,40.9756,296.8606,63.2266,0,U,61753,999,13709,.56939E-3,.37909E-3,0
HORS 4 (RS82S),2024-199V,2026-06-14T03:54:45.197568,15.59432997,.0002997,97.2932,42.1268,278.4397,81.6520,0,U,61754,999,13717,.62363E-3,.49418E-3,0
ARCTICSAT 1 (RS74S),2024-199AD,2026-06-14T02:23:11.419872,16.38817654,.0010761,97.2739,49.3340,237.4855,122.5405,0,U,61762,999,13763,.82634E-3,.9062228E-1,.24925E-5
SIT-2086,2024-199AF,2026-06-14T04:02:01.391424,15.52899780,.0004352,97.2943,41.4369,266.9874,93.0881,0,U,61764,999,13396,.56344E-3,.35022E-3,0
HYPERVIEW 1G (RS66S),2024-199AP,2026-06-14T04:54:21.494880,15.75124762,.0003058,97.2881,44.7750,234.4524,125.6456,0,U,61772,999,13420,.93795E-3,.141737E-2,0
ALTAIR (RS65S),2024-199AW,2026-06-14T04:22:32.628576,15.36979815,.0011376,97.3036,34.5537,323.3572,36.6893,0,U,61779,999,13665,.28666E-3,.10311E-3,0
ASRTU-1 (AO-123),2024-199AY,2026-06-14T04:01:20.078400,15.35637284,.0012534,97.3006,33.8663,326.0379,34.0061,0,U,61781,999,13346,.21845E-3,.7507E-4,0
SAMSAT-IONOSPHERE (RS75S),2024-199BB,2026-06-14T04:02:18.667968,15.57389426,.0005869,97.2954,40.9858,292.5433,67.5201,0,U,61784,999,13709,.60446E-3,.44356E-3,0
RTU MIREA 1 (RS51S),2024-199BC,2026-06-14T04:47:01.857120,15.60797522,.0005458,97.2942,41.8340,284.2773,75.7878,0,U,61785,999,13400,.71214E-3,.59554E-3,0
TEVEL2-4,2025-052D,2026-06-13T15:51:49.437504,15.34498104,.00047951,97.3918,61.0474,110.7775,249.3982,0,U,63213,999,6957,.58447481E-3,.19485E-3,0
TEVEL2-5,2025-052E,2026-06-14T03:18:09.789984,15.34345297,.0004713,97.3913,61.4736,110.5987,249.5761,0,U,63214,999,6964,.59574E-3,.19767E-3,0
TEVEL2-6,2025-052F,2026-06-13T22:54:04.583808,15.34300916,.0004632,97.3920,61.2743,110.9610,249.2129,0,U,63215,999,6961,.56882E-3,.18841E-3,0
TEVEL2-1,2025-052H,2026-06-14T04:16:06.079296,15.33780453,.0004625,97.3889,61.1263,119.6216,240.5488,0,U,63217,999,6963,.56239E-3,.18322E-3,0
TEVEL2-3,2025-052J,2026-06-13T23:26:42.787104,15.33827114,.0004591,97.3894,60.9467,119.8547,240.3152,0,U,63218,999,6960,.57302E-3,.18698E-3,0
TEVEL2-2,2025-052K,2026-06-13T15:45:00.318816,15.33768522,.00046134,97.3888,60.6072,120.9946,239.1750,0,U,63219,999,6955,.57639862E-3,.18774E-3,0
TEVEL2-9,2025-052AD,2026-06-13T16:40:00.359904,15.31800703,.00075109,97.3952,60.0277,140.3804,219.7988,0,U,63237,999,6949,.53567191E-3,.16401E-3,0
TEVEL2-7,2025-052AE,2026-06-13T16:03:51.883200,15.31507331,.00075563,97.3956,59.9204,140.9014,219.2775,0,U,63238,999,6948,.54930719E-3,.16668E-3,0
TEVEL2-8,2025-052AF,2026-06-14T04:48:23.131872,15.31507212,.0007655,97.3953,60.4271,140.3023,219.8780,0,U,63239,999,6956,.51998E-3,.15772E-3,0
INNOSAT 16 (RS92S7),2025-155C,2026-06-14T04:21:10.806912,15.25428325,.001019,97.4558,132.3187,185.8929,174.2190,0,U,64878,999,8021,.22851E-3,.571E-4,0
GEOSCAN 6 (RS92S6),2025-155D,2026-06-14T04:09:36.931968,15.30101235,.0007966,97.4550,133.7136,172.2004,187.9361,0,U,64879,999,8030,.33991E-3,.9836E-4,0
GEOSCAN 1 (RS92S1),2025-155E,2026-06-14T04:14:49.402752,15.30692822,.0007901,97.4546,133.8624,171.8301,188.3070,0,U,64880,999,8031,.36324E-3,.10712E-3,0
239ALFEROV (RS61S),2025-155F,2026-06-14T03:37:16.813056,15.32865796,.0007618,97.4546,134.3876,168.6790,191.4625,0,U,64881,999,8034,.44135E-3,.13952E-3,0
GEOSCAN 2 (RS92S2),2025-155Q,2026-06-14T04:06:29.771424,15.30963439,.0007744,97.4545,134.0080,158.4964,201.6603,0,U,64890,999,8032,.35464E-3,.10545E-3,0
GEOSCAN 5 (RS92S5),2025-155R,2026-06-14T03:22:22.916064,15.33184912,.0006329,97.4539,134.5135,172.0855,188.0488,0,U,64891,999,8035,.46396E-3,.14817E-3,0
GEOSCAN 4 (RS92S4),2025-155S,2026-06-14T04:34:01.867296,15.33338068,.0006405,97.4542,134.6112,171.8044,188.3303,0,U,64892,999,8036,.44198E-3,.14178E-3,0
